{
  "fetched_at": "2026-06-06T13:05:13.833389+00:00",
  "satellites": {
    "57166": {
      "name": "Meteor M2-3",
      "tle_line1": "1 57166U 23091A   26157.27807392  .00000009  00000+0  22532-4 0  9995",
      "tle_line2": "2 57166  98.6086 212.4791 0003722 184.9954 175.1189 14.24045937152968"
    },
    "59051": {
      "name": "Meteor M2-4",
      "tle_line1": "1 59051U 24039A   26157.28041282  .00000031  00000+0  33375-4 0  9994",
      "tle_line2": "2 59051  98.7006 116.7159 0006639 192.6144 167.4868 14.22428468117711"
    },
    "38771": {
      "name": "MetOp-B",
      "tle_line1": "1 38771U 12049A   26157.20856775  .00000112  00000+0  71141-4 0  9994",
      "tle_line2": "2 38771  98.6508 208.9263 0002847  44.7698 315.3709 14.21429780711705"
    },
    "43689": {
      "name": "MetOp-C",
      "tle_line1": "1 43689U 18087A   26157.01721373  .00000123  00000+0  76147-4 0  9993",
      "tle_line2": "2 43689  98.6648 216.8245 0001334 141.8695 218.2577 14.21509183393243"
    },
    "60543": {
      "name": "Arctic Weather Satellite",
      "tle_line1": "1 60543U 24149CD  26156.80286727  .00001068  00000+0  11688-3 0  9999",
      "tle_line2": "2 60543  97.6801 227.5935 0003324 125.7991 234.3537 14.89812426 97604"
    }
  }
}